ONEWEB-0531             
1 54146U 22138AK  24272.42081791 -.00000025  00000+0 -94394-4 0  9996
2 54146  87.9260  39.1022 0002275  72.1045 288.0336 13.20769744 96576
ONEWEB-0535             
1 54147U 22138AL  24272.45350943  .00000066  00000+0  13313-3 0  9992
2 54147  87.9109  69.6048 0001744  83.7121 276.4211 13.19727039 94174
ONEWEB-0536             
1 54148U 22138AM  24272.40817292 -.00000050  00000+0 -15487-3 0  9992
2 54148  87.9259  39.1527 0001673  65.5849 294.5459 13.20774440 96561
ONEWEB-0527             
1 54642U 22166A   24272.55651687  .00000077  00000+0  15483-3 0  9995
2 54642  87.9371   8.7774 0002005  99.8591 260.2770 13.21824647 88759
ONEWEB-0539             
1 54644U 22166C   24272.52340615  .00000022  00000+0  21691-4 0  9999
2 54644  87.9378   8.7784 0001814 104.5654 255.5682 13.21826808 88750
ONEWEB-0540             
1 54645U 22166D   24272.51787865  .00000132  00000+0  28779-3 0  9996
2 54645  87.9370   8.7915 0001694 107.0777 253.0542 13.21824791 88745
